CCSDS_OMM_VERS = 2.0
CREATION_DATE  = 
ORIGINATOR     = 

OBJECT_NAME    = ISS OBJECT XX
OBJECT_ID      = 1998-067XX
CENTER_NAME    = EARTH
REF_FRAME      = TEME
TIME_SYSTEM    = UTC
MEAN_ELEMENT_THEORY = SGP/SGP4

EPOCH          = 2026-03-07T23:50:26.580480
MEAN_MOTION    = 15.74403180
ECCENTRICITY   = .0007035
INCLINATION    = 51.6211
RA_OF_ASC_NODE = 72.7968
ARG_OF_PERICENTER = 71.7783
MEAN_ANOMALY   = 288.3981

EPHEMERIS_TYPE = 0
CLASSIFICATION_TYPE = U
NORAD_CAT_ID   = 66911
ELEMENT_SET_NO = 999
REV_AT_EPOCH   = 1492
BSTAR          = .20292E-2
MEAN_MOTION_DOT = .311474E-2
MEAN_MOTION_DDOT = 0

CCSDS_OMM_VERS = 2.0
CREATION_DATE  = 
ORIGINATOR     = 

OBJECT_NAME    = ISS OBJECT XY
OBJECT_ID      = 1998-067XY
CENTER_NAME    = EARTH
REF_FRAME      = TEME
TIME_SYSTEM    = UTC
MEAN_ELEMENT_THEORY = SGP/SGP4

EPOCH          = 2026-03-08T01:08:35.484288
MEAN_MOTION    = 15.63326659
ECCENTRICITY   = .0003164
INCLINATION    = 51.6266
RA_OF_ASC_NODE = 75.4404
ARG_OF_PERICENTER = 78.4704
MEAN_ANOMALY   = 281.6646

EPHEMERIS_TYPE = 0
CLASSIFICATION_TYPE = U
NORAD_CAT_ID   = 66912
ELEMENT_SET_NO = 999
REV_AT_EPOCH   = 1489
BSTAR          = .12442E-2
MEAN_MOTION_DOT = .117853E-2
MEAN_MOTION_DDOT = 0

CCSDS_OMM_VERS = 2.0
CREATION_DATE  = 
ORIGINATOR     = 

OBJECT_NAME    = ISS OBJECT XZ
OBJECT_ID      = 1998-067XZ
CENTER_NAME    = EARTH
REF_FRAME      = TEME
TIME_SYSTEM    = UTC
MEAN_ELEMENT_THEORY = SGP/SGP4

EPOCH          = 2026-03-08T01:16:37.679232
MEAN_MOTION    = 15.51675990
ECCENTRICITY   = .0009473
INCLINATION    = 51.6304
RA_OF_ASC_NODE = 79.9800
ARG_OF_PERICENTER = 180.1089
MEAN_ANOMALY   = 179.9900

EPHEMERIS_TYPE = 0
CLASSIFICATION_TYPE = U
NORAD_CAT_ID   = 67683
ELEMENT_SET_NO = 999
REV_AT_EPOCH   = 453
BSTAR          = .84448E-3
MEAN_MOTION_DOT = .51106E-3
MEAN_MOTION_DDOT = 0

CCSDS_OMM_VERS = 2.0
CREATION_DATE  = 
ORIGINATOR     = 

OBJECT_NAME    = GXIBA-1
OBJECT_ID      = 1998-067YA
CENTER_NAME    = EARTH
REF_FRAME      = TEME
TIME_SYSTEM    = UTC
MEAN_ELEMENT_THEORY = SGP/SGP4

EPOCH          = 2026-03-08T00:41:03.096384
MEAN_MOTION    = 15.54014167
ECCENTRICITY   = .001087
INCLINATION    = 51.6303
RA_OF_ASC_NODE = 79.8160
ARG_OF_PERICENTER = 170.2751
MEAN_ANOMALY   = 189.8452

EPHEMERIS_TYPE = 0
CLASSIFICATION_TYPE = U
NORAD_CAT_ID   = 67684
ELEMENT_SET_NO = 999
REV_AT_EPOCH   = 453
BSTAR          = .15323E-2
MEAN_MOTION_DOT = .102065E-2
MEAN_MOTION_DDOT = 0

CCSDS_OMM_VERS = 2.0
CREATION_DATE  = 
ORIGINATOR     = 

OBJECT_NAME    = CORAL
OBJECT_ID      = 1998-067YB
CENTER_NAME    = EARTH
REF_FRAME      = TEME
TIME_SYSTEM    = UTC
MEAN_ELEMENT_THEORY = SGP/SGP4

EPOCH          = 2026-03-08T01:10:46.948800
MEAN_MOTION    = 15.52015195
ECCENTRICITY   = .0011437
INCLINATION    = 51.6306
RA_OF_ASC_NODE = 79.9523
ARG_OF_PERICENTER = 177.0714
MEAN_ANOMALY   = 183.0344

EPHEMERIS_TYPE = 0
CLASSIFICATION_TYPE = U
NORAD_CAT_ID   = 67685
ELEMENT_SET_NO = 999
REV_AT_EPOCH   = 453
BSTAR          = .9324E-3
MEAN_MOTION_DOT = .57263E-3
MEAN_MOTION_DDOT = 0

CCSDS_OMM_VERS = 2.0
CREATION_DATE  = 
ORIGINATOR     = 

OBJECT_NAME    = ISS OBJECT YC
OBJECT_ID      = 1998-067YC
CENTER_NAME    = EARTH
REF_FRAME      = TEME
TIME_SYSTEM    = UTC
MEAN_ELEMENT_THEORY = SGP/SGP4

EPOCH          = 2026-03-08T02:36:18.910080
MEAN_MOTION    = 15.52527310
ECCENTRICITY   = .0007881
INCLINATION    = 51.6308
RA_OF_ASC_NODE = 79.6014
ARG_OF_PERICENTER = 144.5542
MEAN_ANOMALY   = 215.5973

EPHEMERIS_TYPE = 0
CLASSIFICATION_TYPE = U
NORAD_CAT_ID   = 67686
ELEMENT_SET_NO = 999
REV_AT_EPOCH   = 454
BSTAR          = .11259E-2
MEAN_MOTION_DOT = .70562E-3
MEAN_MOTION_DDOT = 0

CCSDS_OMM_VERS = 2.0
CREATION_DATE  = 
ORIGINATOR     = 

OBJECT_NAME    = LEOPARD
OBJECT_ID      = 1998-067YD
CENTER_NAME    = EARTH
REF_FRAME      = TEME
TIME_SYSTEM    = UTC
MEAN_ELEMENT_THEORY = SGP/SGP4

EPOCH          = 2026-03-08T01:13:31.544256
MEAN_MOTION    = 15.51844798
ECCENTRICITY   = .000788
INCLINATION    = 51.6310
RA_OF_ASC_NODE = 79.9667
ARG_OF_PERICENTER = 149.0088
MEAN_ANOMALY   = 211.1368

EPHEMERIS_TYPE = 0
CLASSIFICATION_TYPE = U
NORAD_CAT_ID   = 67687
ELEMENT_SET_NO = 999
REV_AT_EPOCH   = 445
BSTAR          = .87276E-3
MEAN_MOTION_DOT = .53141E-3
MEAN_MOTION_DDOT = 0

CCSDS_OMM_VERS = 2.0
CREATION_DATE  = 
ORIGINATOR     = 

OBJECT_NAME    = ISS OBJECT YE
OBJECT_ID      = 1998-067YE
CENTER_NAME    = EARTH
REF_FRAME      = TEME
TIME_SYSTEM    = UTC
MEAN_ELEMENT_THEORY = SGP/SGP4

EPOCH          = 2026-03-08T02:39:33.120864
MEAN_MOTION    = 15.52291499
ECCENTRICITY   = .0007833
INCLINATION    = 51.6306
RA_OF_ASC_NODE = 79.6163
ARG_OF_PERICENTER = 145.3390
MEAN_ANOMALY   = 214.8112

EPHEMERIS_TYPE = 0
CLASSIFICATION_TYPE = U
NORAD_CAT_ID   = 67688
ELEMENT_SET_NO = 999
REV_AT_EPOCH   = 446
BSTAR          = .10339E-2
MEAN_MOTION_DOT = .64151E-3
MEAN_MOTION_DDOT = 0

CCSDS_OMM_VERS = 2.0
CREATION_DATE  = 
ORIGINATOR     = 

OBJECT_NAME    = CREW DRAGON 12
OBJECT_ID      = 2026-031A
CENTER_NAME    = EARTH
REF_FRAME      = TEME
TIME_SYSTEM    = UTC
MEAN_ELEMENT_THEORY = SGP/SGP4

EPOCH          = 2026-03-07T18:30:03.892896
MEAN_MOTION    = 15.48514260
ECCENTRICITY   = .00081173
INCLINATION    = 51.6320
RA_OF_ASC_NODE = 81.8427
ARG_OF_PERICENTER = 167.9196
MEAN_ANOMALY   = 192.1989

EPHEMERIS_TYPE = 0
CLASSIFICATION_TYPE = U
NORAD_CAT_ID   = 67796
ELEMENT_SET_NO = 999
REV_AT_EPOCH   = 55592
BSTAR          = .26707368E-3
MEAN_MOTION_DOT = .14056E-3
MEAN_MOTION_DDOT = 0

